{
    "links": {
        "self": "http://www.neowsapp.com/rest/v1/neo/3797845?api_key=iIulBulltgU6a56xZRHN4H3l9WmuAYTsLGpBGhQ2"
    },
    "id": "3797845",
    "neo_reference_id": "3797845",
    "name": "(2018 AM18)",
    "designation": "2018 AM18",
    "nasa_jpl_url": "http://ssd.jpl.nasa.gov/sbdb.cgi?sstr=3797845",
    "absolute_magnitude_h": 25.2,
    "estimated_diameter": {
        "kilometers": {
            "estimated_diameter_min": 0.0242412481,
            "estimated_diameter_max": 0.0542050786
        },
        "meters": {
            "estimated_diameter_min": 24.2412481101,
            "estimated_diameter_max": 54.2050786336
        },
        "miles": {
            "estimated_diameter_min": 0.0150628086,
            "estimated_diameter_max": 0.0336814639
        },
        "feet": {
            "estimated_diameter_min": 79.5316564495,
            "estimated_diameter_max": 177.8381901842
        }
    },
    "is_potentially_hazardous_asteroid": false,
    "close_approach_data": [
        {
            "close_approach_date": "2018-01-24",
            "close_approach_date_full": "2018-Jan-24 06:12",
            "epoch_date_close_approach": 1516774320000,
            "relative_velocity": {
                "kilometers_per_second": "5.6930767158",
                "kilometers_per_hour": "20495.0761768133",
                "miles_per_hour": "12734.8433055315"
            },
            "miss_distance": {
                "astronomical": "0.0817955994",
                "lunar": "31.8184881666",
                "kilometers": "12236447.445613278",
                "miles": "7603375.8694801164"
            },
            "orbiting_body": "Earth"
        }
    ],
    "orbital_data": {
        "orbit_id": "4",
        "orbit_determination_date": "2018-02-04 07:23:46",
        "first_observation_date": "2018-01-15",
        "last_observation_date": "2018-01-28",
        "data_arc_in_days": 13,
        "observations_used": 22,
        "orbit_uncertainty": "8",
        "minimum_orbit_intersection": ".0574746",
        "jupiter_tisserand_invariant": "4.444",
        "epoch_osculation": "2458136.5",
        "eccentricity": ".3180250727847445",
        "semi_major_axis": "1.519730569074996",
        "inclination": "5.560190815287807",
        "ascending_node_longitude": "298.9987127386145",
        "orbital_period": "684.3028138612971",
        "perihelion_distance": "1.036418144231719",
        "perihelion_argument": "200.33893892",
        "aphelion_distance": "2.003042993918272",
        "perihelion_time": "2458154.136342952844",
        "mean_anomaly": "350.7218217806266",
        "mean_motion": ".526082887148509",
        "equinox": "J2000",
        "orbit_class": {
            "orbit_class_type": "AMO",
            "orbit_class_description": "Near-Earth asteroid orbits similar to that of 1221 Amor",
            "orbit_class_range": "1.017 AU < q (perihelion) < 1.3 AU"
        }
    },
    "is_sentry_object": false
}